{
    "links": {
        "self": "http://www.neowsapp.com/rest/v1/neo/54051173?api_key=iIulBulltgU6a56xZRHN4H3l9WmuAYTsLGpBGhQ2"
    },
    "id": "54051173",
    "neo_reference_id": "54051173",
    "name": "(2020 PN6)",
    "designation": "2020 PN6",
    "nasa_jpl_url": "http://ssd.jpl.nasa.gov/sbdb.cgi?sstr=54051173",
    "absolute_magnitude_h": 24.426,
    "estimated_diameter": {
        "kilometers": {
            "estimated_diameter_min": 0.0346222252,
            "estimated_diameter_max": 0.077417649
        },
        "meters": {
            "estimated_diameter_min": 34.6222251755,
            "estimated_diameter_max": 77.4176490248
        },
        "miles": {
            "estimated_diameter_min": 0.0215132467,
            "estimated_diameter_max": 0.048105082
        },
        "feet": {
            "estimated_diameter_min": 113.5899812448,
            "estimated_diameter_max": 253.9949196264
        }
    },
    "is_potentially_hazardous_asteroid": false,
    "close_approach_data": [
        {
            "close_approach_date": "2020-07-21",
            "close_approach_date_full": "2020-Jul-21 07:29",
            "epoch_date_close_approach": 1595316540000,
            "relative_velocity": {
                "kilometers_per_second": "9.2863463724",
                "kilometers_per_hour": "33430.8469406037",
                "miles_per_hour": "20772.628200399"
            },
            "miss_distance": {
                "astronomical": "0.118960965",
                "lunar": "46.275815385",
                "kilometers": "17796306.97714455",
                "miles": "11058112.38411279"
            },
            "orbiting_body": "Earth"
        },
        {
            "close_approach_date": "2037-07-28",
            "close_approach_date_full": "2037-Jul-28 18:16",
            "epoch_date_close_approach": 2132417760000,
            "relative_velocity": {
                "kilometers_per_second": "10.6528688902",
                "kilometers_per_hour": "38350.328004558",
                "miles_per_hour": "23829.4024203877"
            },
            "miss_distance": {
                "astronomical": "0.0974013718",
                "lunar": "37.8891336302",
                "kilometers": "14571037.756358066",
                "miles": "9054023.0211746708"
            },
            "orbiting_body": "Earth"
        }
    ],
    "orbital_data": {
        "orbit_id": "1",
        "orbit_determination_date": "2020-08-18 18:42:15",
        "first_observation_date": "2020-07-18",
        "last_observation_date": "2020-08-18",
        "data_arc_in_days": 31,
        "observations_used": 12,
        "orbit_uncertainty": "6",
        "minimum_orbit_intersection": ".0934264",
        "jupiter_tisserand_invariant": "3.914",
        "epoch_osculation": "2459000.5",
        "eccentricity": ".4126421121719782",
        "semi_major_axis": "1.808420255578667",
        "inclination": "15.09387838591629",
        "ascending_node_longitude": "133.0530428468666",
        "orbital_period": "888.2750649441332",
        "perihelion_distance": "1.062189901622097",
        "perihelion_argument": "143.5912097771453",
        "aphelion_distance": "2.554650609535237",
        "perihelion_time": "2459027.255883201701",
        "mean_anomaly": "349.1563792199682",
        "mean_motion": ".4052798667973886",
        "equinox": "J2000",
        "orbit_class": {
            "orbit_class_type": "AMO",
            "orbit_class_description": "Near-Earth asteroid orbits similar to that of 1221 Amor",
            "orbit_class_range": "1.017 AU < q (perihelion) < 1.3 AU"
        }
    },
    "is_sentry_object": false
}